[{"OBJECT_NAME":"STARLINK-1686","OBJECT_ID":"2020-062D","EPOCH":"2026-03-09T22:36:24.211296","MEAN_MOTION":15.70442116,"ECCENTRICITY":0.00055257,"INCLINATION":53.0437,"RA_OF_ASC_NODE":313.2055,"ARG_OF_PERICENTER":281.1531,"MEAN_ANOMALY":78.8864,"EPHEMERIS_TYPE":0,"CLASSIFICATION_TYPE":"U","NORAD_CAT_ID":46328,"ELEMENT_SET_NO":999,"REV_AT_EPOCH":30522,"BSTAR":0.00099254031,"MEAN_MOTION_DOT":0.0012535,"MEAN_MOTION_DDOT":0},{"OBJECT_NAME":"STARLINK-11328 [DTC]","OBJECT_ID":"2024-204G","EPOCH":"2026-03-09T22:38:03.469344","MEAN_MOTION":15.69695311,"ECCENTRICITY":0.00011139,"INCLINATION":53.1596,"RA_OF_ASC_NODE":355.0685,"ARG_OF_PERICENTER":108.791,"MEAN_ANOMALY":251.3229,"EPHEMERIS_TYPE":0,"CLASSIFICATION_TYPE":"U","NORAD_CAT_ID":61880,"ELEMENT_SET_NO":999,"REV_AT_EPOCH":7695,"BSTAR":1.4262548e-5,"MEAN_MOTION_DOT":1.139e-5,"MEAN_MOTION_DDOT":0}]
